OBJECT_NAME,OBJECT_ID,EPOCH,MEAN_MOTION,ECCENTRICITY,INCLINATION,RA_OF_ASC_NODE,ARG_OF_PERICENTER,MEAN_ANOMALY,EPHEMERIS_TYPE,CLASSIFICATION_TYPE,NORAD_CAT_ID,ELEMENT_SET_NO,REV_AT_EPOCH,BSTAR,MEAN_MOTION_DOT,MEAN_MOTION_DDOT
INTELSAT 21 (IS-21),2012-045A,2026-06-05T03:13:32.230848,1.00273786,.0002117,0.0394,81.6281,357.9628,164.3704,0,U,38749,999,5040,0,-.273E-5,0
INTELSAT 23 (IS-23),2012-057A,2026-06-05T04:35:20.186304,1.00268022,.0000265,0.0117,307.8410,187.9542,133.6532,0,U,38867,999,4983,0,-.272E-5,0
FM-6,2013-058A,2026-06-04T14:47:01.290624,1.00251470,.00021209,0.0096,36.6997,147.5696,174.2528,0,U,39360,999,4594,0,-.1E-7,0
INTELSAT 30 (IS-30),2014-062A,2026-06-04T21:39:57.148992,1.00268318,.0001113,0.0264,48.5331,350.9711,83.7621,0,U,40271,999,667,0,-.138E-5,0
DIRECTV 14,2014-078B,2026-06-04T21:38:42.268704,1.00272349,.0000256,0.0095,324.1263,199.1564,315.5074,0,U,40333,999,4192,0,-.113E-5,0
DIRECTV 15,2015-026A,2026-06-04T23:20:23.924832,1.00272632,.0000127,0.0173,7.9959,267.6092,225.0151,0,U,40663,999,4034,0,-.9E-6,0
SKY MEXICO-1,2015-026B,2026-06-05T02:59:12.937056,1.00272705,.000232,0.0163,7.4689,82.1960,129.9020,0,U,40664,999,4033,0,-.222E-5,0
INTELSAT 34 (IS-34),2015-039A,2026-06-04T21:51:11.073312,1.00269697,.0000276,0.0092,325.9423,62.8751,136.8315,0,U,40874,999,3951,0,-.273E-5,0
INTELSAT 31 (IS-31),2016-035A,2026-06-05T04:26:45.213792,1.00272351,.0000845,0.0141,264.6705,321.7238,358.8749,0,U,41581,999,3656,0,-.139E-5,0
INTELSAT 36 (IS-36),2016-053A,2026-06-04T19:57:21.472992,1.00270778,.0001599,0.0136,12.5282,330.5945,277.9825,0,U,41747,999,3583,0,-.12E-6,0
INTELSAT 32E (IS-32E),2017-007B,2026-06-04T11:38:44.577024,1.00272952,.00004549,0.0180,347.8046,15.9771,20.6539,0,U,41945,999,3409,0,-.257E-5,0
INTELSAT 35E (IS-35E),2017-041A,2026-06-05T04:43:54.909120,1.00273862,.0001976,0.0154,13.7640,59.6322,216.7268,0,U,42818,999,3269,0,-.225E-5,0
INTELSAT 37E (IS-37E),2017-059A,2026-06-05T03:09:57.754080,1.00271990,.0002613,0.0157,10.5088,79.7007,192.8647,0,U,42950,999,3194,0,-.128E-5,0
AZERSPACE 2 (IS-38),2018-074A,2026-06-04T12:03:57.159360,1.00272076,.00016543,0.0013,357.4289,67.8132,53.8049,0,U,43632,999,2832,0,.148E-5,0
HORIZONS-3E,2018-074B,2026-06-04T14:46:38.428320,1.00270803,.00007507,0.0181,149.5538,123.5060,10.6575,0,U,43633,999,2821,0,-.19E-6,0
AT&T T-16,2019-034A,2026-06-04T23:20:53.877120,1.00272225,.0000373,0.0247,65.3119,219.6139,217.8574,0,U,44333,999,2551,0,-.103E-5,0
INTELSAT 39 (IS-39),2019-049B,2026-06-04T15:25:19.326720,1.00271423,.00005827,0.0188,328.9935,359.4045,217.9725,0,U,44476,999,2500,0,.45E-6,0
GALAXY 30 (G-30),2020-056C,2026-06-05T04:10:38.733024,1.00272487,.0002406,0.0183,330.2604,100.9144,120.0823,0,U,46114,999,2117,0,.49E-6,0
GALAXY 33 (G-33),2022-128A,2026-06-05T03:41:55.447008,1.00271741,.0001992,0.0168,36.6297,37.1779,102.2771,0,U,54026,999,1362,0,.91E-6,0
GALAXY 34 (G-34),2022-128B,2026-06-04T23:12:54.643104,1.00273793,.0001971,0.0137,6.5753,86.4583,19.6129,0,U,54027,999,1379,0,.71E-6,0
GALAXY 31 (G-31),2022-153A,2026-06-05T02:40:32.704032,1.00272123,.0001471,0.0130,55.2266,19.3691,98.0902,0,U,54243,999,701,0,.25E-6,0
GALAXY 32 (G-32),2022-153B,2026-06-03T20:00:59.416128,1.00270822,.00023838,0.0097,353.7552,46.7034,61.0732,0,U,54244,999,1301,0,-.162E-5,0
GALAXY 35 (G-35),2022-170A,2026-06-05T01:05:52.908000,1.00272255,.0002229,0.0161,33.4009,45.5750,97.8850,0,U,54741,999,1277,0,-.15E-5,0
GALAXY 36 (G-36),2022-170B,2026-06-05T01:03:34.591968,1.00272495,.0002876,0.0166,245.1596,195.6515,99.5737,0,U,54742,999,1265,0,-.173E-5,0
GALAXY 37 (G-37),2023-112A,2026-06-04T23:13:32.082816,1.00273223,.0002233,0.0166,319.4800,117.5390,37.7833,0,U,57493,999,1042,0,.6E-6,0
